{"fetched_at":"2026-07-20T18:29:24.778Z","source":"https://celestrak.org/NORAD/elements/gp.php?NAME=HAWK&FORMAT=JSON","constellation":"hawkeye-360","records":[{"OBJECT_NAME":"HAWK-A","OBJECT_ID":"2018-099H","EPOCH":"2026-07-20T02:15:27.972000","CLASSIFICATION_TYPE":"U","MEAN_MOTION":15.25001549,"ECCENTRICITY":0.00352734,"INCLINATION":97.3891,"RA_OF_ASC_NODE":252.9053,"ARG_OF_PERICENTER":166.8572,"MEAN_ANOMALY":193.3593,"EPHEMERIS_TYPE":0,"NORAD_CAT_ID":43765,"ELEMENT_SET_NO":999,"REV_AT_EPOCH":41811,"BSTAR":0.00015705264,"MEAN_MOTION_DOT":0.00003914,"MEAN_MOTION_DDOT":0},{"OBJECT_NAME":"HAWK-B","OBJECT_ID":"2018-099AN","EPOCH":"2026-07-20T02:08:52.334304","CLASSIFICATION_TYPE":"U","MEAN_MOTION":15.23147151,"ECCENTRICITY":0.00318699,"INCLINATION":97.3942,"RA_OF_ASC_NODE":252.2461,"ARG_OF_PERICENTER":184.7615,"MEAN_ANOMALY":175.3324,"EPHEMERIS_TYPE":0,"NORAD_CAT_ID":43794,"ELEMENT_SET_NO":999,"REV_AT_EPOCH":41804,"BSTAR":0.00014076644,"MEAN_MOTION_DOT":0.00003298,"MEAN_MOTION_DDOT":0},{"OBJECT_NAME":"HAWK-C","OBJECT_ID":"2018-099AT","EPOCH":"2026-07-20T03:01:53.665248","CLASSIFICATION_TYPE":"U","MEAN_MOTION":15.28537062,"ECCENTRICITY":0.00408084,"INCLINATION":97.3867,"RA_OF_ASC_NODE":254.0132,"ARG_OF_PERICENTER":166.5097,"MEAN_ANOMALY":193.7244,"EPHEMERIS_TYPE":0,"NORAD_CAT_ID":43799,"ELEMENT_SET_NO":999,"REV_AT_EPOCH":41894,"BSTAR":0.00017039696,"MEAN_MOTION_DOT":0.00004771,"MEAN_MOTION_DDOT":0},{"OBJECT_NAME":"HAWK-2C","OBJECT_ID":"2021-006CT","EPOCH":"2026-07-20T01:49:05.646720","CLASSIFICATION_TYPE":"U","MEAN_MOTION":15.35024151,"ECCENTRICITY":0.00086607,"INCLINATION":97.226,"RA_OF_ASC_NODE":244.7343,"ARG_OF_PERICENTER":87.1093,"MEAN_ANOMALY":273.1142,"EPHEMERIS_TYPE":0,"NORAD_CAT_ID":47502,"ELEMENT_SET_NO":999,"REV_AT_EPOCH":30454,"BSTAR":0.00010645849,"MEAN_MOTION_DOT":0.00003542,"MEAN_MOTION_DDOT":0},{"OBJECT_NAME":"HAWK-2A","OBJECT_ID":"2021-006CW","EPOCH":"2026-07-20T01:52:11.981280","CLASSIFICATION_TYPE":"U","MEAN_MOTION":15.35045063,"ECCENTRICITY":0.00082189,"INCLINATION":97.2301,"RA_OF_ASC_NODE":245.4333,"ARG_OF_PERICENTER":90.5861,"MEAN_ANOMALY":269.6324,"EPHEMERIS_TYPE":0,"NORAD_CAT_ID":47505,"ELEMENT_SET_NO":999,"REV_AT_EPOCH":30454,"BSTAR":0.00010704673,"MEAN_MOTION_DOT":0.00003564,"MEAN_MOTION_DDOT":0},{"OBJECT_NAME":"HAWK-2B","OBJECT_ID":"2021-006CZ","EPOCH":"2026-07-20T01:42:17.115552","CLASSIFICATION_TYPE":"U","MEAN_MOTION":15.35176516,"ECCENTRICITY":0.00087457,"INCLINATION":97.2173,"RA_OF_ASC_NODE":243.7068,"ARG_OF_PERICENTER":88.8475,"MEAN_ANOMALY":271.3771,"EPHEMERIS_TYPE":0,"NORAD_CAT_ID":47508,"ELEMENT_SET_NO":999,"REV_AT_EPOCH":30454,"BSTAR":0.00012336174,"MEAN_MOTION_DOT":0.00004138,"MEAN_MOTION_DDOT":0},{"OBJECT_NAME":"HAWK-3B","OBJECT_ID":"2021-059BE","EPOCH":"2026-07-20T03:05:42.618336","CLASSIFICATION_TYPE":"U","MEAN_MOTION":15.72164957,"ECCENTRICITY":0.00048552,"INCLINATION":97.6637,"RA_OF_ASC_NODE":41.0194,"ARG_OF_PERICENTER":181.2561,"MEAN_ANOMALY":178.869,"EPHEMERIS_TYPE":0,"NORAD_CAT_ID":48931,"ELEMENT_SET_NO":999,"REV_AT_EPOCH":28302,"BSTAR":0.00021491603,"MEAN_MOTION_DOT":0.00028153,"MEAN_MOTION_DDOT":0},{"OBJECT_NAME":"HAWK-3C","OBJECT_ID":"2021-059BX","EPOCH":"2026-07-20T03:05:15.238176","CLASSIFICATION_TYPE":"U","MEAN_MOTION":15.72164981,"ECCENTRICITY":0.00051501,"INCLINATION":97.6753,"RA_OF_ASC_NODE":46.7605,"ARG_OF_PERICENTER":181.4395,"MEAN_ANOMALY":178.6854,"EPHEMERIS_TYPE":0,"NORAD_CAT_ID":48948,"ELEMENT_SET_NO":999,"REV_AT_EPOCH":28302,"BSTAR":0.00021708438,"MEAN_MOTION_DOT":0.00028441,"MEAN_MOTION_DDOT":0},{"OBJECT_NAME":"HAWK-3A","OBJECT_ID":"2021-059CG","EPOCH":"2026-07-20T03:05:05.583840","CLASSIFICATION_TYPE":"U","MEAN_MOTION":15.72164641,"ECCENTRICITY":0.00050492,"INCLINATION":97.6701,"RA_OF_ASC_NODE":43.9389,"ARG_OF_PERICENTER":183.4307,"MEAN_ANOMALY":176.6922,"EPHEMERIS_TYPE":0,"NORAD_CAT_ID":48957,"ELEMENT_SET_NO":999,"REV_AT_EPOCH":28302,"BSTAR":0.00021024664,"MEAN_MOTION_DOT":0.00027537,"MEAN_MOTION_DDOT":0},{"OBJECT_NAME":"HAWK-5C","OBJECT_ID":"2022-057Y","EPOCH":"2026-07-20T04:26:51.172800","CLASSIFICATION_TYPE":"U","MEAN_MOTION":15.52433953,"ECCENTRICITY":0.00024026,"INCLINATION":97.6629,"RA_OF_ASC_NODE":3.0139,"ARG_OF_PERICENTER":321.6813,"MEAN_ANOMALY":38.4268,"EPHEMERIS_TYPE":0,"NORAD_CAT_ID":52754,"ELEMENT_SET_NO":999,"REV_AT_EPOCH":23146,"BSTAR":0.00018340661,"MEAN_MOTION_DOT":0.00011103,"MEAN_MOTION_DDOT":0},{"OBJECT_NAME":"HAWK-5B","OBJECT_ID":"2022-057AA","EPOCH":"2026-07-20T05:59:25.382112","CLASSIFICATION_TYPE":"U","MEAN_MOTION":15.52431444,"ECCENTRICITY":0.00030724,"INCLINATION":97.6641,"RA_OF_ASC_NODE":1.437,"ARG_OF_PERICENTER":307.482,"MEAN_ANOMALY":52.6152,"EPHEMERIS_TYPE":0,"NORAD_CAT_ID":52756,"ELEMENT_SET_NO":999,"REV_AT_EPOCH":23147,"BSTAR":0.00018236948,"MEAN_MOTION_DOT":0.00011039,"MEAN_MOTION_DDOT":0},{"OBJECT_NAME":"HAWK-5A","OBJECT_ID":"2022-057AB","EPOCH":"2026-07-20T05:59:07.722816","CLASSIFICATION_TYPE":"U","MEAN_MOTION":15.52434413,"ECCENTRICITY":0.00029534,"INCLINATION":97.6637,"RA_OF_ASC_NODE":2.2669,"ARG_OF_PERICENTER":313.5625,"MEAN_ANOMALY":46.5381,"EPHEMERIS_TYPE":0,"NORAD_CAT_ID":52757,"ELEMENT_SET_NO":999,"REV_AT_EPOCH":23147,"BSTAR":0.00018518189,"MEAN_MOTION_DOT":0.00011212,"MEAN_MOTION_DDOT":0},{"OBJECT_NAME":"HAWK-6B","OBJECT_ID":"2023-011A","EPOCH":"2026-07-20T03:57:29.015424","CLASSIFICATION_TYPE":"U","MEAN_MOTION":15.23180588,"ECCENTRICITY":0.00045774,"INCLINATION":40.4981,"RA_OF_ASC_NODE":159.6818,"ARG_OF_PERICENTER":265.8375,"MEAN_ANOMALY":94.1911,"EPHEMERIS_TYPE":0,"NORAD_CAT_ID":55324,"ELEMENT_SET_NO":999,"REV_AT_EPOCH":19287,"BSTAR":0.0001161883,"MEAN_MOTION_DOT":0.00002609,"MEAN_MOTION_DDOT":0},{"OBJECT_NAME":"HAWK-6C","OBJECT_ID":"2023-011C","EPOCH":"2026-07-20T07:05:24.048672","CLASSIFICATION_TYPE":"U","MEAN_MOTION":15.23180433,"ECCENTRICITY":0.00050453,"INCLINATION":40.4968,"RA_OF_ASC_NODE":155.7556,"ARG_OF_PERICENTER":260.9756,"MEAN_ANOMALY":99.0483,"EPHEMERIS_TYPE":0,"NORAD_CAT_ID":55326,"ELEMENT_SET_NO":999,"REV_AT_EPOCH":19290,"BSTAR":0.00010612287,"MEAN_MOTION_DOT":0.00002366,"MEAN_MOTION_DDOT":0},{"OBJECT_NAME":"HAWK-6A","OBJECT_ID":"2023-011D","EPOCH":"2026-07-20T07:05:27.289536","CLASSIFICATION_TYPE":"U","MEAN_MOTION":15.23180974,"ECCENTRICITY":0.00047409,"INCLINATION":40.4979,"RA_OF_ASC_NODE":157.3831,"ARG_OF_PERICENTER":258.0591,"MEAN_ANOMALY":101.9687,"EPHEMERIS_TYPE":0,"NORAD_CAT_ID":55327,"ELEMENT_SET_NO":999,"REV_AT_EPOCH":19290,"BSTAR":0.00011106684,"MEAN_MOTION_DOT":0.00002486,"MEAN_MOTION_DDOT":0},{"OBJECT_NAME":"HAWK-7A","OBJECT_ID":"2023-054P","EPOCH":"2026-07-20T03:01:46.996896","CLASSIFICATION_TYPE":"U","MEAN_MOTION":15.27662032,"ECCENTRICITY":0.00010103,"INCLINATION":97.2654,"RA_OF_ASC_NODE":87.6258,"ARG_OF_PERICENTER":297.8313,"MEAN_ANOMALY":62.2824,"EPHEMERIS_TYPE":0,"NORAD_CAT_ID":56191,"ELEMENT_SET_NO":999,"REV_AT_EPOCH":18205,"BSTAR":0.000110707,"MEAN_MOTION_DOT":0.00002921,"MEAN_MOTION_DDOT":0}]}
