HAWK-A                  
1 43765U 18099H   26201.09407375  .00003914  00000+0  15705-3 0  9995
2 43765  97.3891 252.9053 0035273 166.8572 193.3593 15.25001549418115
HAWK-B                  
1 43794U 18099AN  26201.08949461  .00003298  00000+0  14077-3 0  9999
2 43794  97.3942 252.2461 0031869 184.7615 175.3324 15.23147151418046
HAWK-C                  
1 43799U 18099AT  26201.12631557  .00004771  00000+0  17040-3 0  9993
2 43799  97.3867 254.0132 0040808 166.5097 193.7244 15.28537062418940
HAWK-2C                 
1 47502U 21006CT  26201.07575980  .00003542  00000+0  10646-3 0  9992
2 47502  97.2260 244.7343 0008660  87.1093 273.1142 15.35024151304544
HAWK-2A                 
1 47505U 21006CW  26201.07791645  .00003564  00000+0  10705-3 0  9993
2 47505  97.2301 245.4333 0008218  90.5861 269.6324 15.35045063304547
HAWK-2B                 
1 47508U 21006CZ  26201.07103143  .00004138  00000+0  12336-3 0  9996
2 47508  97.2173 243.7068 0008745  88.8475 271.3771 15.35176516304543
HAWK-3B                 
1 48931U 21059BE  26201.12896549  .00028153  00000+0  21492-3 0  9996
2 48931  97.6637  41.0194 0004855 181.2561 178.8690 15.72164957283021
HAWK-3C                 
1 48948U 21059BX  26201.12864859  .00028441  00000+0  21708-3 0  9993
2 48948  97.6753  46.7605 0005150 181.4395 178.6854 15.72164981283020
HAWK-3A                 
1 48957U 21059CG  26201.12853685  .00027537  00000+0  21025-3 0  9995
2 48957  97.6701  43.9389 0005049 183.4307 176.6922 15.72164641283020
HAWK-5C                 
1 52754U 22057Y   26201.18531450  .00011103  00000+0  18341-3 0  9992
2 52754  97.6629   3.0139 0002402 321.6813  38.4268 15.52433953231469
HAWK-5B                 
1 52756U 22057AA  26201.24959933  .00011039  00000+0  18237-3 0  9993
2 52756  97.6641   1.4370 0003072 307.4820  52.6152 15.52431444231472
HAWK-5A                 
1 52757U 22057AB  26201.24939494  .00011212  00000+0  18518-3 0  9999
2 52757  97.6637   2.2669 0002953 313.5625  46.5381 15.52434413231471
HAWK-6B                 
1 55324U 23011A   26201.16491916  .00002609  00000+0  11619-3 0  9991
2 55324  40.4981 159.6818 0004577 265.8375  94.1911 15.23180588192877
HAWK-6C                 
1 55326U 23011C   26201.29541723  .00002366  00000+0  10612-3 0  9991
2 55326  40.4968 155.7556 0005045 260.9756  99.0483 15.23180433192901
HAWK-6A                 
1 55327U 23011D   26201.29545474  .00002486  00000+0  11107-3 0  9992
2 55327  40.4979 157.3831 0004740 258.0591 101.9687 15.23180974192903
HAWK-7A                 
1 56191U 23054P   26201.12623839  .00002921  00000+0  11071-3 0  9997
2 56191  97.2654  87.6258 0001010 297.8313  62.2824 15.27662032182052
